start=new Date('2022-06-21T00:00:00.000Z').valueOf();
sats=[{"OBJECT_NAME":"STARLINK-3273","MEAN_MOTION_DOT":"0.00001709","REV_AT_EPOCH":"3142","CLASSIFICATION_TYPE":"U","ECCENTRICITY":"0.00024920","MEAN_ANOMALY":"326.1960","DECAY_DATE":null,"ARG_OF_PERICENTER":"33.9191","TIME_SYSTEM":"UTC","ELEMENT_SET_NO":"999","PERIOD":"95.437","RCS_SIZE":"LARGE","INCLINATION":"53.2149","TLE_LINE1":"1 50191U 21125AM  22171.59264730  .00001709  00000-0  12544-3 0  9992","REF_FRAME":"TEME","COUNTRY_CODE":"US","BSTAR":"0.00012544000000","EPOCH":"2022-06-20T14:13:24.726720","MEAN_ELEMENT_THEORY":"SGP4","MEAN_MOTION_DDOT":"0.0000000000000","NORAD_CAT_ID":"50191","RA_OF_ASC_NODE":"235.8654","LAUNCH_DATE":"2021-12-18","MEAN_MOTION":"15.08845951","FILE":"3498404","EPHEMERIS_TYPE":"0","OBJECT_TYPE":"PAYLOAD","CENTER_NAME":"EARTH","TLE_LINE2":"2 50191  53.2149 235.8654 0002492  33.9191 326.1960 15.08845951 31421","SITE":"AFWTR","PERIAPSIS":"538.003","APOAPSIS":"541.451","OBJECT_ID":"2021-125AM","SEMIMAJOR_AXIS":"6917.862","GP_ID":"206514134"},{"PERIAPSIS":"538.365","TLE_LINE2":"2 50192  53.2177 214.7236 0001979  44.4163 315.6987 15.08843756 31748","SITE":"AFWTR","CENTER_NAME":"EARTH","APOAPSIS":"541.103","GP_ID":"206514383","SEMIMAJOR_AXIS":"6917.869","OBJECT_ID":"2021-125AN","FILE":"3498404","MEAN_MOTION":"15.08843756","OBJECT_TYPE":"PAYLOAD","EPHEMERIS_TYPE":"0","MEAN_MOTION_DDOT":"0.0000000000000","NORAD_CAT_ID":"50192","RA_OF_ASC_NODE":"214.7236","LAUNCH_DATE":"2021-12-18","EPOCH":"2022-06-20T20:16:24.397248","MEAN_ELEMENT_THEORY":"SGP4","TLE_LINE1":"1 50192U 21125AN  22171.84472682  .00000203  00000-0  30844-4 0  9990","REF_FRAME":"TEME","BSTAR":"0.00003084400000","COUNTRY_CODE":"US","DECAY_DATE":null,"TIME_SYSTEM":"UTC","ARG_OF_PERICENTER":"44.4163","PERIOD":"95.437","ELEMENT_SET_NO":"999","INCLINATION":"53.2177","RCS_SIZE":"LARGE","MEAN_ANOMALY":"315.6987","ECCENTRICITY":"0.00019790","CLASSIFICATION_TYPE":"U","MEAN_MOTION_DOT":"0.00000203","OBJECT_NAME":"STARLINK-3259","REV_AT_EPOCH":"3174"},{"MEAN_MOTION_DDOT":"0.0000000000000","NORAD_CAT_ID":"50193","RA_OF_ASC_NODE":"214.6662","LAUNCH_DATE":"2021-12-18","EPOCH":"2022-06-20T20:32:18.437280","MEAN_ELEMENT_THEORY":"SGP4","SITE":"AFWTR","TLE_LINE2":"2 50193  53.2151 214.6662 0001882  41.9216 318.1920 15.08843145 31799","CENTER_NAME":"EARTH","PERIAPSIS":"538.434","APOAPSIS":"541.038","OBJECT_ID":"2021-125AP","SEMIMAJOR_AXIS":"6917.871","GP_ID":"206515628","FILE":"3498404","MEAN_MOTION":"15.08843145","EPHEMERIS_TYPE":"0","OBJECT_TYPE":"PAYLOAD","CLASSIFICATION_TYPE":"U","ECCENTRICITY":"0.00018820","MEAN_ANOMALY":"318.1920","OBJECT_NAME":"STARLINK-3261","MEAN_MOTION_DOT":"0.00000658","REV_AT_EPOCH":"3179","TLE_LINE1":"1 50193U 21125AP  22171.85576895  .00000658  00000-0  59412-4 0  9999","REF_FRAME":"TEME","COUNTRY_CODE":"US","BSTAR":"0.00005941200000","DECAY_DATE":null,"ARG_OF_PERICENTER":"41.9216","TIME_SYSTEM":"UTC","ELEMENT_SET_NO":"999","PERIOD":"95.437","RCS_SIZE":"LARGE","INCLINATION":"53.2151"},{"EPHEMERIS_TYPE":"0","OBJECT_TYPE":"PAYLOAD","MEAN_MOTION":"15.08840637","FILE":"3498404","OBJECT_ID":"2021-125AQ","GP_ID":"206515872","SEMIMAJOR_AXIS":"6917.878","APOAPSIS":"541.087","SITE":"AFWTR","TLE_LINE2":"2 50194  53.2153 214.7310 0001942  46.3248 313.7905 15.08840637 31791","CENTER_NAME":"EARTH","PERIAPSIS":"538.400","EPOCH":"2022-06-20T20:11:06.707904","MEAN_ELEMENT_THEORY":"SGP4","LAUNCH_DATE":"2021-12-18","NORAD_CAT_ID":"50194","RA_OF_ASC_NODE":"214.7310","MEAN_MOTION_DDOT":"0.0000000000000","RCS_SIZE":"LARGE","INCLINATION":"53.2153","ELEMENT_SET_NO":"999","PERIOD":"95.438","ARG_OF_PERICENTER":"46.3248","TIME_SYSTEM":"UTC","DECAY_DATE":null,"COUNTRY_CODE":"US","BSTAR":"0.00006341000000","REF_FRAME":"TEME","TLE_LINE1":"1 50194U 21125AQ  22171.84104986  .00000721  00000-0  63410-4 0  9991","REV_AT_EPOCH":"3179","OBJECT_NAME":"STARLINK-3269","MEAN_MOTION_DOT":"0.00000721","CLASSIFICATION_TYPE":"U","ECCENTRICITY":"0.00019420","MEAN_ANOMALY":"313.7905"},{"PERIAPSIS":"538.417","CENTER_NAME":"EARTH","TLE_LINE2":"2 50195  53.2158 214.6841 0001903  47.0488 313.0664 15.08844001 31745","SITE":"AFWTR","SEMIMAJOR_AXIS":"6917.868","GP_ID":"206514635","OBJECT_ID":"2021-125AR","APOAPSIS":"541.050","MEAN_MOTION":"15.08844001","FILE":"3498404","OBJECT_TYPE":"PAYLOAD","EPHEMERIS_TYPE":"0","NORAD_CAT_ID":"50195","RA_OF_ASC_NODE":"214.6841","MEAN_MOTION_DDOT":"0.0000000000000","LAUNCH_DATE":"2021-12-18","EPOCH":"2022-06-20T20:27:00.197568","MEAN_ELEMENT_THEORY":"SGP4","TLE_LINE1":"1 50195U 21125AR  22171.85208562  .00000308  00000-0  37474-4 0  9990","BSTAR":"0.00003747400000","COUNTRY_CODE":"US","REF_FRAME":"TEME","TIME_SYSTEM":"UTC","ARG_OF_PERICENTER":"47.0488","DECAY_DATE":null,"INCLINATION":"53.2158","RCS_SIZE":"LARGE","PERIOD":"95.437","ELEMENT_SET_NO":"999","MEAN_ANOMALY":"313.0664","ECCENTRICITY":"0.00019030","CLASSIFICATION_TYPE":"U","REV_AT_EPOCH":"3174","MEAN_MOTION_DOT":"0.00000308","OBJECT_NAME":"STARLINK-3266"},{"EPHEMERIS_TYPE":"0","OBJECT_TYPE":"PAYLOAD","FILE":"3498071","MEAN_MOTION":"15.08840446","OBJECT_ID":"2021-125AS","SEMIMAJOR_AXIS":"6917.879","GP_ID":"206482062","APOAPSIS":"541.474","TLE_LINE2":"2 50196  53.2177 216.2560 0002501  32.9053 327.2094 15.08840446 31696","CENTER_NAME":"EARTH","SITE":"AFWTR","PERIAPSIS":"538.014","EPOCH":"2022-06-20T12:03:35.317440","MEAN_ELEMENT_THEORY":"SGP4","LAUNCH_DATE":"2021-12-18","NORAD_CAT_ID":"50196","RA_OF_ASC_NODE":"216.2560","MEAN_MOTION_DDOT":"0.0000000000000","RCS_SIZE":"LARGE","INCLINATION":"53.2177","ELEMENT_SET_NO":"999","PERIOD":"95.438","ARG_OF_PERICENTER":"32.9053","TIME_SYSTEM":"UTC","DECAY_DATE":null,"COUNTRY_CODE":"US","BSTAR":"0.00017308000000","REF_FRAME":"TEME","TLE_LINE1":"1 50196U 21125AS  22171.50249210  .00002467  00000-0  17308-3 0  9999","REV_AT_EPOCH":"3169","OBJECT_NAME":"STARLINK-3263","MEAN_MOTION_DOT":"0.00002467","CLASSIFICATION_TYPE":"U","MEAN_ANOMALY":"327.2094","ECCENTRICITY":"0.00025010"},{"CLASSIFICATION_TYPE":"U","MEAN_ANOMALY":"314.4493","ECCENTRICITY":"0.00018870","REV_AT_EPOCH":"3179","OBJECT_NAME":"STARLINK-3267","MEAN_MOTION_DOT":"0.00002056","TLE_LINE1":"1 50197U 21125AT  22171.83737197  .00002056  00000-0  14720-3 0  9991","COUNTRY_CODE":"US","BSTAR":"0.00014720000000","REF_FRAME":"TEME","ARG_OF_PERICENTER":"45.6654","TIME_SYSTEM":"UTC","DECAY_DATE":null,"RCS_SIZE":"LARGE","INCLINATION":"53.2175","ELEMENT_SET_NO":"999","PERIOD":"95.437","RA_OF_ASC_NODE":"214.7515","NORAD_CAT_ID":"50197","MEAN_MOTION_DDOT":"0.0000000000000","LAUNCH_DATE":"2021-12-18","MEAN_ELEMENT_THEORY":"SGP4","EPOCH":"2022-06-20T20:05:48.938208","TLE_LINE2":"2 50197  53.2175 214.7515 0001887  45.6654 314.4493 15.08844420 31790","CENTER_NAME":"EARTH","SITE":"AFWTR","PERIAPSIS":"538.426","OBJECT_ID":"2021-125AT","SEMIMAJOR_AXIS":"6917.867","GP_ID":"206515128","APOAPSIS":"541.037","MEAN_MOTION":"15.08844420","FILE":"3498404","EPHEMERIS_TYPE":"0","OBJECT_TYPE":"PAYLOAD"},{"LAUNCH_DATE":"2021-12-18","MEAN_MOTION_DDOT":"0.0000000000000","RA_OF_ASC_NODE":"214.8285","NORAD_CAT_ID":"50198","EPOCH":"2022-06-20T19:44:36.982464","MEAN_ELEMENT_THEORY":"SGP4","APOAPSIS":"541.275","OBJECT_ID":"2021-125AU","SEMIMAJOR_AXIS":"6917.890","GP_ID":"206515372","SITE":"AFWTR","TLE_LINE2":"2 50198  53.2192 214.8285 0002198  41.6863 318.4297 15.08836883 31744","CENTER_NAME":"EARTH","PERIAPSIS":"538.234","EPHEMERIS_TYPE":"0","OBJECT_TYPE":"PAYLOAD","MEAN_MOTION":"15.08836883","FILE":"3498404","CLASSIFICATION_TYPE":"U","ECCENTRICITY":"0.00021980","MEAN_ANOMALY":"318.4297","OBJECT_NAME":"STARLINK-3264","MEAN_MOTION_DOT":"0.00000722","REV_AT_EPOCH":"3174","REF_FRAME":"TEME","COUNTRY_CODE":"US","BSTAR":"0.00006350400000","TLE_LINE1":"1 50198U 21125AU  22171.82265026  .00000722  00000-0  63504-4 0  9991","ELEMENT_SET_NO":"999","PERIOD":"95.438","RCS_SIZE":"LARGE","INCLINATION":"53.2192","DECAY_DATE":null,"ARG_OF_PERICENTER":"41.6863","TIME_SYSTEM":"UTC"},{"PERIOD":"95.438","ELEMENT_SET_NO":"999","INCLINATION":"53.2163","RCS_SIZE":"LARGE","DECAY_DATE":null,"TIME_SYSTEM":"UTC","ARG_OF_PERICENTER":"36.9143","REF_FRAME":"TEME","BSTAR":"0.00017437000000","COUNTRY_CODE":"US","TLE_LINE1":"1 50199U 21125AV  22171.60552709  .00002488  00000-0  17437-3 0  9999","MEAN_MOTION_DOT":"0.00002488","OBJECT_NAME":"STARLINK-3270","REV_AT_EPOCH":"3170","ECCENTRICITY":"0.00023400","MEAN_ANOMALY":"323.2010","CLASSIFICATION_TYPE":"U","OBJECT_TYPE":"PAYLOAD","EPHEMERIS_TYPE":"0","FILE":"3498404","MEAN_MOTION":"15.08836512","APOAPSIS":"541.375","SEMIMAJOR_AXIS":"6917.891","GP_ID":"206514135","OBJECT_ID":"2021-125AV","PERIAPSIS":"538.137","TLE_LINE2":"2 50199  53.2163 215.7899 0002340  36.9143 323.2010 15.08836512 31703","SITE":"AFWTR","CENTER_NAME":"EARTH","EPOCH":"2022-06-20T14:31:57.540576","MEAN_ELEMENT_THEORY":"SGP4","LAUNCH_DATE":"2021-12-18","MEAN_MOTION_DDOT":"0.0000000000000","NORAD_CAT_ID":"50199","RA_OF_ASC_NODE":"215.7899"},{"LAUNCH_DATE":"2021-12-18","MEAN_MOTION_DDOT":"0.0000000000000","NORAD_CAT_ID":"50200","RA_OF_ASC_NODE":"214.7835","EPOCH":"2022-06-20T19:55:12.952992","MEAN_ELEMENT_THEORY":"SGP4","APOAPSIS":"541.355","OBJECT_ID":"2021-125AW","GP_ID":"206514384","SEMIMAJOR_AXIS":"6917.878","TLE_LINE2":"2 50200  53.2177 214.7835 0002330  41.4729 318.6440 15.08840794 31757","SITE":"AFWTR","CENTER_NAME":"EARTH","PERIAPSIS":"538.131","EPHEMERIS_TYPE":"0","OBJECT_TYPE":"PAYLOAD","FILE":"3498404","MEAN_MOTION":"15.08840794","CLASSIFICATION_TYPE":"U","ECCENTRICITY":"0.00023300","MEAN_ANOMALY":"318.6440","OBJECT_NAME":"STARLINK-3235","MEAN_MOTION_DOT":"-0.00001316","REV_AT_EPOCH":"3175","REF_FRAME":"TEME","COUNTRY_CODE":"US","BSTAR":"-0.00006459800000","TLE_LINE1":"1 50200U 21125AW  22171.83001103 -.00001316  00000-0 -64598-4 0  9996","ELEMENT_SET_NO":"999","PERIOD":"95.438","RCS_SIZE":"LARGE","INCLINATION":"53.2177","DECAY_DATE":null,"ARG_OF_PERICENTER":"41.4729","TIME_SYSTEM":"UTC"}];
